40P/Vaisala,e,11.6408,129.0929,51.8101,4.958995,0.0892511,0.63235388,329.0650,11/30.0/2024,2000,g  5.5,12.0
# From MPEC 2023-SQ0
41P/Tuttle-Giacobini-Kresak,e,9.2161,140.9712,62.2296,3.088082,0.1816230,0.65953106,146.8623,11/30.0/2024,2000,g 10.0,16.0
# From MPC 94283
42P/Neujmin,e,3.9884,150.1555,147.1626,4.877661,0.0914927,0.58402477,322.3960,11/30.0/2024,2000,g 13.0,6.0
# From MPEC 2024-VJ2
43P/Wolf-Harrington,e,9.3343,243.9949,223.9083,4.329147,0.1094210,0.43591804,332.8609,11/30.0/2024,2000,g  8.0,6.0
# From MPEC 2024-F34
44P/Reinmuth,e,5.8961,286.4232,58.0130,3.687755,0.1391749,0.42687145,132.5692,11/30.0/2024,2000,g  8.3,6.0
# From MPEC 2022-O01
45P/Honda-Mrkos-Pajdusakova,e,4.3241,87.6857,327.9460,3.056678,0.1844291,0.81771819,174.7853,11/30.0/2024,2000,g 13.5,8.0
# From MPEC 2024-F91
46P/Wirtanen,e,11.7498,82.1610,356.3248,3.091310,0.1813386,0.65876124,35.3429,11/30.0/2024,2000,g 14.0,6.0
# From MPEC 2024-PC5
47P/Ashbrook-Jackson,e,13.0375,356.8895,357.8925,4.118772,0.1179105,0.31837515,320.8646,11/30.0/2024,2000,g  1.0,11.2
# From MPEC 2024-UA9
48P/Johnson,e,12.2015,110.0640,216.7771,3.499932,0.1505271,0.42668473,346.0542,11/30.0/2024,2000,g 10.0,6.0
# From MPEC 2024-VJ2
49P/Arend-Rigaux,e,19.0587,118.7941,332.9380,3.569467,0.1461500,0.59900895,340.7625,11/30.0/2024,2000,g 11.3,4.4
# From MPEC 2024-VB7
50P/Arend,e,19.0985,355.1496,49.3327,4.088639,0.1192164,0.52989068,23.9968,11/30.0/2024,2000,g  9.5,6.0
# From MPEC 2023-J29
51P/Harrington,e,5.4263,83.6580,269.2435,3.705411,0.1381814,0.54294404,109.3080,11/30.0/2024,2000,g 10.0,8.0
# From NK 3014
51P-A/Harrington,e,5.4263,269.2305,83.6513,3.706666,0.1381112,0.54313535,108.8963,11/30.0/2024,2000,g 10.0,8.0
# From MPEC 2023-J29
51P-D/Harrington,e,5.4268,83.6462,269.2617,3.705764,0.1381616,0.54307396,109.2339,11/30.0/2024,2000,g 16.0,8.0
# From MPEC 2023-XP6
52P/Harrington-Abell,e,10.2353,336.7700,139.5886,3.862298,0.1298481,0.54096461,149.4720,11/30.0/2024,2000,g 13.5,6.0
# From MPEC 2023-TM6
53P/VanBiesbroeck,e,6.6029,148.8506,134.3745,5.437876,0.0777249,0.54954650,244.3643,11/30.0/2024,2000,g  7.7,4.8
# From MPEC 2024-VJ2
54P/deVico-Swift-NEAT,e,6.0639,358.7965,1.9927,3.786573,0.1337626,0.42642059,11.6423,11/30.0/2024,2000,g 10.0,6.0
# From MPC 31070
55P/Tempel-Tuttle,e,162.4947,235.4170,172.4765,10.34236,0.0296329,0.90563568,289.9367,11/30.0/2024,2000,g  9.0,4.0
# From MPEC 2023-TM6
56P/Slaughter-Burnham,e,8.1552,345.9100,44.1940,5.063534,0.0865015,0.50852869,263.6216,11/30.0/2024,2000,g  8.5,6.0
# From MPEC 2024-DC6
57P/duToit-Neujmin-Delporte,e,2.8526,188.7622,115.0645,3.441628,0.1543684,0.50092654,176.0523,11/30.0/2024,2000,g 12.5,6.0
# From MPEC 2024-A43
58P/Jackson-Neujmin,e,13.0926,159.0517,200.5788,4.090415,0.1191387,0.66195448,196.3026,11/30.0/2024,2000,g 15.5,6.0
# From MPEC 2023-A50
59P/Kearns-Kwee,e,9.3537,312.7349,127.6365,4.479966,0.1039422,0.47699733,235.1353,11/30.0/2024,2000,g  7.0,6.0
# From MPEC 2021-F20
60P/Tsuchinshan,e,3.5813,267.4268,216.9202,3.529310,0.1486515,0.53380786,325.4138,11/30.0/2024,2000,g 11.5,6.0
# From MPEC 2024-JU4
61P/Shajn-Schaldach,e,5.9980,162.9639,221.6910,3.689889,0.1390542,0.42332848,106.8448,11/30.0/2024,2000,g  6.0,10.0
# From MPEC 2024-O39
62P/Tsuchinshan,e,4.7375,68.6663,47.3164,3.370319,0.1592933,0.62466657,54.2951,11/30.0/2024,2000,g  8.0,10.0
# From MPC 84320
63P/Wild,e,19.6322,357.8205,168.8253,5.642866,0.0735283,0.65059251,317.1003,11/30.0/2024,2000,g 10.5,6.0
# From MPEC 2024-A43
64P/Swift-Gehrels,e,8.9527,299.7897,97.3167,4.452122,0.1049188,0.68862578,232.3470,11/30.0/2024,2000,g  9.5,12.0
# From MPEC 2024-R10
65P/Gunn,e,9.1759,61.9767,213.7084,3.891653,0.1283817,0.24810783,334.4995,11/30.0/2024,2000,g  5.0,6.0
# From MPEC 2021-F20
66P/duToit,e,18.6432,21.8165,257.4260,6.070702,0.0658940,0.78502303,157.6029,11/30.0/2024,2000,g 15.0,4.0
# From MPEC 2024-C04
67P/Churyumov-Gerasimenko,e,3.8698,36.3235,22.1927,3.458359,0.1532494,0.64997166,172.1577,11/30.0/2024,2000,g 11.0,4.0
# From MPEC 2023-HD1
68P/Klemola,e,11.1031,175.0809,153.2473,4.962857,0.0891469,0.63603252,164.9061,11/30.0/2024,2000,g 12.6,4.0
# From MPEC 2024-C04
69P/Taylor,e,22.0610,104.8077,343.4619,3.881439,0.1288887,0.41464683,268.1956,11/30.0/2024,2000,g  9.5,12.0
# From MPEC 2023-VM5
70P/Kojima,e,6.6020,119.2358,1.7791,3.675774,0.1398559,0.45463443,156.9575,11/30.0/2024,2000,g 11.0,6.0
# From MPEC 2024-A43
71P/Clark,e,9.4038,59.3853,209.8403,3.160486,0.1754177,0.49189036,118.6752,11/30.0/2024,2000,g  9.8,6.0
# From MPEC 2023-VM5
72P/Denning-Fujikawa,e,10.9469,26.7086,346.7443,4.307496,0.1102470,0.81849065,58.7947,11/30.0/2024,2000,g 17.5,10.0
# From MPEC 2023-RF3
73P/Schwassmann-Wachmann,e,11.2171,69.4203,198.9558,3.061561,0.1839881,0.70138843,150.6162,11/30.0/2024,2000,g 11.5,6.0
# From NK 1613
73P-B/Schwassmann-Wachmann B,e,10.9681,197.3562,71.1879,3.076848,0.1826186,0.69446696,149.5554,11/30.0/2024,2000,g  9.0,4.0
# From NK 2710
73P-C/Schwassmann-Wachmann,e,10.9745,197.4761,71.1026,3.075700,0.1827208,0.69410311,150.3961,11/30.0/2024,2000,g  9.0,4.0
# From NK 934
73P-E/Schwassmann-Wachmann,e,10.9485,197.1464,71.3672,3.080274,0.1823140,0.69518159,147.6739,11/30.0/2024,2000,g  9.0,4.0
# From MPC 56796
73P-G/Schwassmann-Wachmann,e,11.388,69.909,198.772,3.06230,0.183922,0.6933024,359.982,06/08.0/2006,2000,g  9.0,4.0
# From MPC 56796
73P-H/Schwassmann-Wachmann,e,11.389,69.903,198.778,3.06223,0.183927,0.6933024,359.948,06/08.0/2006,2000,g  9.0,4.0
# From MPC 56796
73P-J/Schwassmann-Wachmann,e,11.386,69.983,198.673,3.06380,0.183786,0.6933024,359.974,06/08.0/2006,2000,g  9.0,4.0
# From MPC 56797
73P-K/Schwassmann-Wachmann,e,11.390,69.881,198.809,3.06176,0.183970,0.6933024,359.959,06/08.0/2006,2000,g  9.0,4.0
# From MPC 56797
73P-L/Schwassmann-Wachmann,e,11.388,69.911,198.772,3.06211,0.183938,0.6933024,359.937,06/08.0/2006,2000,g  9.0,4.0
# From MPC 56797
73P-M/Schwassmann-Wachmann,e,11.389,69.895,198.787,3.06205,0.183944,0.6933024,359.952,06/08.0/2006,2000,g  9.0,4.0
# From MPC 56797
73P-N/Schwassmann-Wachmann,e,11.389,69.909,198.754,3.06231,0.183921,0.6933024,359.952,06/08.0/2006,2000,g  9.0,4.0
# From MPC 56797
73P-P/Schwassmann-Wachmann,e,11.390,69.900,198.783,3.06222,0.183929,0.6933024,359.839,06/07.0/2006,2000,g  9.0,4.0
# From MPC 56797
73P-Q/Schwassmann-Wachmann,e,11.387,69.944,198.717,3.06298,0.183860,0.6933024,359.867,06/07.0/2006,2000,g  9.0,4.0
# From MPC 56797
73P-R/Schwassmann-Wachmann,e,11.388,69.904,198.776,3.06224,0.183927,0.6933024,359.966,06/08.0/2006,2000,g  9.0,4.0
# From MPC 56797
73P-S/Schwassmann-Wachmann,e,11.127,77.364,188.229,3.22719,0.170007,0.6933024,359.883,06/08.0/2006,2000,g  9.0,4.0
# From MPEC 2023-J29
73P-T/Schwassmann-Wachmann,e,11.2233,69.4286,198.9412,3.060639,0.1840712,0.70111687,150.9239,11/30.0/2024,2000,g  9.0,4.0
# From MPC 56797
73P-U/Schwassmann-Wachmann,e,11.384,69.994,198.659,3.06366,0.183799,0.6933024,359.997,06/09.0/2006,2000,g  9.0,4.0
# From MPC 56797
73P-V/Schwassmann-Wachmann,e,11.651,65.236,204.943,2.97417,0.192156,0.6933024,359.908,06/08.0/2006,2000,g  9.0,4.0
# From MPC 56797
73P-W/Schwassmann-Wachmann,e,11.390,69.884,198.803,3.06185,0.183962,0.6933024,359.908,06/08.0/2006,2000,g  9.0,4.0
# From MPC 56798
73P-X/Schwassmann-Wachmann,e,11.388,69.900,198.778,3.06207,0.183942,0.6933024,359.896,06/08.0/2006,2000,g  9.0,4.0
# From MPC 56798
73P-Y/Schwassmann-Wachmann,e,11.391,69.879,198.785,3.06200,0.183948,0.6933024,359.858,06/08.0/2006,2000,g  9.0,4.0
# From MPC 56798
73P-Z/Schwassmann-Wachmann,e,11.349,70.493,198.017,3.07155,0.183091,0.6933024,359.943,06/08.0/2006,2000,g  9.0,4.0
# From MPC 56798
73P-AA/Schwassmann-Wachmann,e,11.390,69.883,198.804,3.06182,0.183965,0.6933024,359.984,06/09.0/2006,2000,g  9.0,4.0
# From MPC 56798
73P-AB/Schwassmann-Wachmann,e,11.390,69.888,198.792,3.06183,0.183964,0.6933024,359.872,06/08.0/2006,2000,g  9.0,4.0
# From MPC 56798
73P-AC/Schwassmann-Wachmann,e,11.387,69.914,198.766,3.06223,0.183927,0.6933024,359.872,06/08.0/2006,2000,g  9.0,4.0
# From MPC 56798
73P-AD/Schwassmann-Wachmann,e,11.355,70.416,198.119,3.07035,0.183198,0.6933024,359.873,06/08.0/2006,2000,g  9.0,4.0
# From MPC 56798
73P-AE/Schwassmann-Wachmann,e,11.390,69.891,198.790,3.06196,0.183952,0.6933024,359.935,06/08.0/2006,2000,g  9.0,4.0
# From MPC 56798
73P-AF/Schwassmann-Wachmann,e,11.356,70.302,198.217,3.06961,0.183265,0.6933024,359.846,06/06.0/2006,2000,g  9.0,4.0
# From MPC 56798
73P-AG/Schwassmann-Wachmann,e,11.386,69.932,198.724,3.06233,0.183919,0.6933024,359.997,06/09.0/2006,2000,g  9.0,4.0
# From MPC 56798
73P-AH/Schwassmann-Wachmann,e,11.331,70.695,197.755,3.07445,0.182832,0.6933024,359.885,06/08.0/2006,2000,g  9.0,4.0
# From MPC 56798
73P-AI/Schwassmann-Wachmann,e,11.392,69.885,198.806,3.06205,0.183944,0.6933024,359.864,06/08.0/2006,2000,g  9.0,4.0
# From MPC 56799
73P-AJ/Schwassmann-Wachmann,e,11.385,70.041,198.663,3.06262,0.183892,0.6933024,359.864,06/08.0/2006,2000,g  9.0,4.0
# From MPC 56799
73P-AK/Schwassmann-Wachmann,e,11.389,69.784,198.822,3.06244,0.183909,0.6933024,359.927,06/08.0/2006,2000,g  9.0,4.0
# From MPC 56799
73P-AL/Schwassmann-Wachmann,e,11.395,69.843,198.857,3.06140,0.184003,0.6933024,359.916,06/08.0/2006,2000,g  9.0,4.0
# From MPC 56799
73P-AM/Schwassmann-Wachmann,e,11.394,69.876,198.815,3.06205,0.183944,0.6933024,359.951,06/08.0/2006,2000,g  9.0,4.0
# From MPC 56799
73P-AN/Schwassmann-Wachmann,e,11.393,69.870,198.820,3.06185,0.183962,0.6933024,359.940,06/08.0/2006,2000,g  9.0,4.0
# From MPC 56799
73P-AO/Schwassmann-Wachmann,e,11.210,71.286,197.007,3.07823,0.182496,0.6933024,359.853,06/07.0/2006,2000,g  9.0,4.0
# From MPC 56799
73P-AP/Schwassmann-Wachmann,e,11.393,69.895,198.794,3.06223,0.183928,0.6933024,359.874,06/06.0/2006,2000,g  9.0,4.0
# From MPC 56799
73P-AQ/Schwassmann-Wachmann,e,11.387,69.911,198.770,3.06230,0.183921,0.6933024,359.831,06/07.0/2006,2000,g  9.0,4.0
# From MPC 56799
73P-AR/Schwassmann-Wachmann,e,11.385,69.946,198.722,3.06285,0.183872,0.6933024,359.847,06/06.0/2006,2000,g  9.0,4.0
# From MPC 56799
